[{"OBJECT_NAME":"STARLINK-4023","OBJECT_ID":"2022-083D","EPOCH":"2026-03-09T14:46:44.141088","MEAN_MOTION":15.08835236,"ECCENTRICITY":0.0001216,"INCLINATION":53.2153,"RA_OF_ASC_NODE":174.4516,"ARG_OF_PERICENTER":86.8349,"MEAN_ANOMALY":273.2782,"EPHEMERIS_TYPE":0,"CLASSIFICATION_TYPE":"U","NORAD_CAT_ID":53135,"ELEMENT_SET_NO":999,"REV_AT_EPOCH":20219,"BSTAR":0.0001952,"MEAN_MOTION_DOT":2.82e-5,"MEAN_MOTION_DDOT":0},{"OBJECT_NAME":"JILIN-1 KUANFU 02A","OBJECT_ID":"2023-127A","EPOCH":"2026-03-09T22:42:00.221760","MEAN_MOTION":15.09948681,"ECCENTRICITY":0.0009702,"INCLINATION":97.5529,"RA_OF_ASC_NODE":164.1218,"ARG_OF_PERICENTER":318.2814,"MEAN_ANOMALY":41.7675,"EPHEMERIS_TYPE":0,"CLASSIFICATION_TYPE":"U","NORAD_CAT_ID":57696,"ELEMENT_SET_NO":999,"REV_AT_EPOCH":14065,"BSTAR":0.00045097028,"MEAN_MOTION_DOT":7.263e-5,"MEAN_MOTION_DDOT":0}]
